#aV2015  6 23  0  0  0.00000000     288 DD+AD WGS84 FIT  NGA
## 1850 172800.00000000   300.00000000 57196 0.0000000000000
+   31     1  2  3  4  5  6  7  9 10 11 12 13 14 15 16 17 18
+         19 20 21 22 23 24 25 26 27 28 29 30 31 32  0  0  0
+          0  0  0  0  0  0  0  0  0  0  0  0  0  0  0  0  0
+          0  0  0  0  0  0  0  0  0  0  0  0  0  0  0  0  0
+          0  0  0  0  0  0  0  0  0  0  0  0  0  0  0  0  0
++         2  2  2  2  2  2  2  2  2  2  2  2  2  2  2  2  2
++         2  2  2  2  2  2  2  2  2  2  2  2  2  2  0  0  0
++         0  0  0  0  0  0  0  0  0  0  0  0  0  0  0  0  0
++         0  0  0  0  0  0  0  0  0  0  0  0  0  0  0  0  0
++         0  0  0  0  0  0  0  0  0  0  0  0  0  0  0  0  0
%c cc cc ccc ccc cccc cccc cccc cccc ccccc ccccc ccccc ccccc
%c cc cc ccc ccc cccc cccc cccc cccc ccccc ccccc ccccc ccccc
%f  0.0000000  0.000000000  0.00000000000  0.000000000000000
%f  0.0000000  0.000000000  0.00000000000  0.000000000000000
%i    0    0    0    0      0      0      0      0         0
%i    0    0    0    0      0      0      0      0         0
/*      NGA, ST. LOUIS,MO.                                  
/*   EPHEMERIS COMPUTED FROM  1 DAYS OF DATA                
/*   EPOCHA SMOOTHER                                       
/* CCCCCCCCCCCCCCCCCCCCCCCCCCCCCCCCCCCCCCCCCCCCCCCCCCCCCCCCC
*  2015  6 23 16 25  0.00000000
P  1   4375.626557 -17615.916223 -19376.387880     -3.875929                    
V  1  22308.482178 -10332.303743  14662.738102      0.005295                    
P  2 -21338.629466  15135.717544   3217.010368    573.908485                    
V  2  -5093.295481  -1389.937226 -31244.905826      0.023720                    
P  3  -6384.600286 -18608.168338 -17812.917106    355.187532                    
V  3  20182.365763  10455.935992 -18173.250529      0.063949                    
P  4  13040.062154 -18758.469709 -13648.321957    -21.017470                    
V  4  16137.802303  -5878.271932  24345.574580     -0.022898                    
P  5 -14220.261110   8779.769650  20630.304106   -226.017117                    
V  5 -22073.735520 -14364.270278  -8894.265620      0.044418                    
P  6 -24025.956532   4999.549463 -10154.182507    191.139323                    
V  6  10157.598771  -8314.586329 -28128.976125      0.085486                    
P  7 -10955.293773 -11075.450281  21662.240022    470.428560                    
V  7  24100.150982 -12559.299992   5423.478610      0.023175                    
P  9  -7997.716921 -22233.038324  12108.795558   -173.512973                    
V  9   2812.745579 -15336.432314 -26305.126053     -0.038682                    
P 10 -24049.235766  -7863.313041   8360.807068   -179.948338                    
V 10  -7823.631057  -8345.586264 -28578.016958     -0.014106                    
P 11   5880.952542 -22526.629234 -13211.621751   -586.910187                    
V 11  13569.477843  -9575.957327  23445.037935     -0.024491                    
P 12   3154.551126  17781.957684 -19656.455560    303.950863                    
V 12 -20737.788149 -13235.121421 -15171.048969      0.032479                    
P 13 -12473.426438  18459.228005  14413.848163   -125.984695                    
V 13    813.876941 -18534.399647  24089.127828     -0.034006                    
P 14  14225.762519   5952.658246 -21396.221425     53.937927                    
V 14  -3283.622109  27520.839020   5259.036836     -0.027425                    
P 15  -4082.334282  25302.114251   6208.271407   -256.597344                    
V 15  -3978.936291  -8023.538424  29971.982949     -0.021256                    
P 16  14625.163380  -6632.833956  21150.399737   -115.892157                    
V 16  21681.487921  15896.198503  -9610.389270      0.039655                    
P 17 -14289.964332  -5246.803786 -21493.326104   -177.179462                    
V 17   2353.911524 -27832.052249   4958.644586     -0.016185                    
P 18  21020.390512  16058.487323   4261.043574    411.684738                    
V 18  -5936.550095    657.130861  30128.756842      0.030111                    
P 19   8088.451922 -23843.698899   7466.549984   -514.125144                    
V 19   1564.513583  10128.847123  30313.562659     -0.010052                    
P 20   2299.138875  17707.298007  19491.651243    332.333470                    
V 20 -23139.200262 -10209.524364  11989.095653      0.035332                    
P 21  13797.373170  10122.924995  21087.291003   -457.816142                    
V 21 -21648.888812  12961.835633   7869.569027     -0.033031                    
P 22  24311.663710   7772.532857  -7428.148296    364.022381                    
V 22   6548.435685   8107.317027  28810.216221      0.038459                    
P 23   -697.335251 -26232.182711   2146.880243   -116.670425                    
V 23   3655.836488  -2465.210191 -31609.554529     -0.023635                    
P 24  -7095.778454  18430.096307 -17728.077260     -0.151331                    
V 24 -20522.697703   9438.824360  18208.099501     -0.005642                    
P 25  15466.834979  18522.863754 -11383.421819     -5.078578                    
V 25 -13046.744983  -5921.391511 -27447.027772     -0.042357                    
P 26  21611.488772    564.268333  15421.564140     -1.046884                    
V 26  15678.295716  11934.266592 -22387.846456     -0.031012                    
P 27  12133.219969 -16291.156079  17027.836369     -0.759948                    
V 27   1160.487190  21727.349908  20050.166019      0.027570                    
P 28 -22694.334104 -13121.166217  -3919.728125    448.832590                    
V 28  -3548.282049  -4886.914421  31800.504466      0.026823                    
P 29   5358.393220  23734.105805  10729.515155    618.390932                    
V 29  -3165.639629  13343.885111 -27937.204531      0.023084                    
P 30 -20175.324930  -3980.260389  16839.735503    -38.429441                    
V 30  18759.953542 -10434.501475  19924.633001      0.070315                    
P 31  24773.937059  -7018.387044  -7058.317882    312.039353                    
V 31  -7196.061424   5826.736318 -30166.441703     -0.011670                    
P 32   7812.637420 -13508.517450 -21535.936287   -117.963999                    
V 32  21995.916206  16207.236216  -1651.772434      0.097736                    
EOF
